CCSDS_OMM_VERS = 2.0
CREATION_DATE  = 
ORIGINATOR     = 

OBJECT_NAME    = STARLINK-35858
OBJECT_ID      = 2025-280N
CENTER_NAME    = EARTH
REF_FRAME      = TEME
TIME_SYSTEM    = UTC
MEAN_ELEMENT_THEORY = SGP/SGP4

EPOCH          = 2025-12-22T04:00:01.998720
MEAN_MOTION    = 15.52559827
ECCENTRICITY   = .0003451
INCLINATION    = 69.9997
RA_OF_ASC_NODE = 172.5689
ARG_OF_PERICENTER = 273.8710
MEAN_ANOMALY   = 228.8528

EPHEMERIS_TYPE = 0
CLASSIFICATION_TYPE = U
NORAD_CAT_ID   = 66833
ELEMENT_SET_NO = 999
REV_AT_EPOCH   = 441
BSTAR          = -.2254E-2
MEAN_MOTION_DOT = -.136687E-2
MEAN_MOTION_DDOT = 0

CCSDS_OMM_VERS = 2.0
CREATION_DATE  = 
ORIGINATOR     = 

OBJECT_NAME    = STARLINK-35840
OBJECT_ID      = 2025-280P
CENTER_NAME    = EARTH
REF_FRAME      = TEME
TIME_SYSTEM    = UTC
MEAN_ELEMENT_THEORY = SGP/SGP4

EPOCH          = 2025-12-22T04:00:01.998720
MEAN_MOTION    = 15.52562564
ECCENTRICITY   = .0003536
INCLINATION    = 69.9999
RA_OF_ASC_NODE = 172.5658
ARG_OF_PERICENTER = 270.4809
MEAN_ANOMALY   = 234.1588

EPHEMERIS_TYPE = 0
CLASSIFICATION_TYPE = U
NORAD_CAT_ID   = 66834
ELEMENT_SET_NO = 999
REV_AT_EPOCH   = 441
BSTAR          = -.22942E-2
MEAN_MOTION_DOT = -.139097E-2
MEAN_MOTION_DDOT = 0

CCSDS_OMM_VERS = 2.0
CREATION_DATE  = 
ORIGINATOR     = 

OBJECT_NAME    = STARLINK-35890
OBJECT_ID      = 2025-280Q
CENTER_NAME    = EARTH
REF_FRAME      = TEME
TIME_SYSTEM    = UTC
MEAN_ELEMENT_THEORY = SGP/SGP4

EPOCH          = 2025-12-22T04:00:01.998720
MEAN_MOTION    = 15.52563397
ECCENTRICITY   = .0003385
INCLINATION    = 69.9999
RA_OF_ASC_NODE = 172.5633
ARG_OF_PERICENTER = 272.8486
MEAN_ANOMALY   = 233.7101

EPHEMERIS_TYPE = 0
CLASSIFICATION_TYPE = U
NORAD_CAT_ID   = 66835
ELEMENT_SET_NO = 999
REV_AT_EPOCH   = 441
BSTAR          = -.23792E-2
MEAN_MOTION_DOT = -.144149E-2
MEAN_MOTION_DDOT = 0

CCSDS_OMM_VERS = 2.0
CREATION_DATE  = 
ORIGINATOR     = 

OBJECT_NAME    = STARLINK-35838
OBJECT_ID      = 2025-280R
CENTER_NAME    = EARTH
REF_FRAME      = TEME
TIME_SYSTEM    = UTC
MEAN_ELEMENT_THEORY = SGP/SGP4

EPOCH          = 2025-12-22T04:00:01.998720
MEAN_MOTION    = 15.52540675
ECCENTRICITY   = .0003266
INCLINATION    = 70.0000
RA_OF_ASC_NODE = 172.5609
ARG_OF_PERICENTER = 274.0169
MEAN_ANOMALY   = 234.4531

EPHEMERIS_TYPE = 0
CLASSIFICATION_TYPE = U
NORAD_CAT_ID   = 66836
ELEMENT_SET_NO = 999
REV_AT_EPOCH   = 441
BSTAR          = -.16195E-2
MEAN_MOTION_DOT = -.98652E-3
MEAN_MOTION_DDOT = 0

CCSDS_OMM_VERS = 2.0
CREATION_DATE  = 
ORIGINATOR     = 

OBJECT_NAME    = STARLINK-35729
OBJECT_ID      = 2025-280S
CENTER_NAME    = EARTH
REF_FRAME      = TEME
TIME_SYSTEM    = UTC
MEAN_ELEMENT_THEORY = SGP/SGP4

EPOCH          = 2025-12-22T04:00:01.998720
MEAN_MOTION    = 15.52547476
ECCENTRICITY   = .0003302
INCLINATION    = 70.0001
RA_OF_ASC_NODE = 172.5585
ARG_OF_PERICENTER = 271.3253
MEAN_ANOMALY   = 239.0570

EPHEMERIS_TYPE = 0
CLASSIFICATION_TYPE = U
NORAD_CAT_ID   = 66837
ELEMENT_SET_NO = 999
REV_AT_EPOCH   = 441
BSTAR          = -.17907E-2
MEAN_MOTION_DOT = -.108951E-2
MEAN_MOTION_DDOT = 0

CCSDS_OMM_VERS = 2.0
CREATION_DATE  = 
ORIGINATOR     = 

OBJECT_NAME    = STARLINK-35886
OBJECT_ID      = 2025-280T
CENTER_NAME    = EARTH
REF_FRAME      = TEME
TIME_SYSTEM    = UTC
MEAN_ELEMENT_THEORY = SGP/SGP4

EPOCH          = 2025-12-22T04:00:01.998720
MEAN_MOTION    = 15.52562766
ECCENTRICITY   = .0003188
INCLINATION    = 70.0001
RA_OF_ASC_NODE = 172.5535
ARG_OF_PERICENTER = 274.5209
MEAN_ANOMALY   = 239.7039

EPHEMERIS_TYPE = 0
CLASSIFICATION_TYPE = U
NORAD_CAT_ID   = 66838
ELEMENT_SET_NO = 999
REV_AT_EPOCH   = 441
BSTAR          = -.22793E-2
MEAN_MOTION_DOT = -.1382E-2
MEAN_MOTION_DDOT = 0

CCSDS_OMM_VERS = 2.0
CREATION_DATE  = 
ORIGINATOR     = 

OBJECT_NAME    = STARLINK-35717
OBJECT_ID      = 2025-280U
CENTER_NAME    = EARTH
REF_FRAME      = TEME
TIME_SYSTEM    = UTC
MEAN_ELEMENT_THEORY = SGP/SGP4

EPOCH          = 2025-12-22T04:00:01.998720
MEAN_MOTION    = 15.52561602
ECCENTRICITY   = .0003388
INCLINATION    = 70.0001
RA_OF_ASC_NODE = 172.5558
ARG_OF_PERICENTER = 273.7770
MEAN_ANOMALY   = 238.5306

EPHEMERIS_TYPE = 0
CLASSIFICATION_TYPE = U
NORAD_CAT_ID   = 66839
ELEMENT_SET_NO = 999
REV_AT_EPOCH   = 441
BSTAR          = -.22735E-2
MEAN_MOTION_DOT = -.137855E-2
MEAN_MOTION_DDOT = 0

CCSDS_OMM_VERS = 2.0
CREATION_DATE  = 
ORIGINATOR     = 

OBJECT_NAME    = STARLINK-35837
OBJECT_ID      = 2025-280V
CENTER_NAME    = EARTH
REF_FRAME      = TEME
TIME_SYSTEM    = UTC
MEAN_ELEMENT_THEORY = SGP/SGP4

EPOCH          = 2025-12-22T04:00:01.998720
MEAN_MOTION    = 15.52493578
ECCENTRICITY   = .0003311
INCLINATION    = 70.0000
RA_OF_ASC_NODE = 172.5514
ARG_OF_PERICENTER = 272.4747
MEAN_ANOMALY   = 243.5786

EPHEMERIS_TYPE = 0
CLASSIFICATION_TYPE = U
NORAD_CAT_ID   = 66840
ELEMENT_SET_NO = 999
REV_AT_EPOCH   = 441
BSTAR          = .9532E-3
MEAN_MOTION_DOT = .58856E-3
MEAN_MOTION_DDOT = 0

CCSDS_OMM_VERS = 2.0
CREATION_DATE  = 
ORIGINATOR     = 

OBJECT_NAME    = STARLINK-35715
OBJECT_ID      = 2025-280W
CENTER_NAME    = EARTH
REF_FRAME      = TEME
TIME_SYSTEM    = UTC
MEAN_ELEMENT_THEORY = SGP/SGP4

EPOCH          = 2025-12-22T04:00:01.998720
MEAN_MOTION    = 15.52560673
ECCENTRICITY   = .0003447
INCLINATION    = 70.0000
RA_OF_ASC_NODE = 172.5493
ARG_OF_PERICENTER = 273.1554
MEAN_ANOMALY   = 244.9055

EPHEMERIS_TYPE = 0
CLASSIFICATION_TYPE = U
NORAD_CAT_ID   = 66841
ELEMENT_SET_NO = 999
REV_AT_EPOCH   = 441
BSTAR          = -.22584E-2
MEAN_MOTION_DOT = -.136952E-2
MEAN_MOTION_DDOT = 0

CCSDS_OMM_VERS = 2.0
CREATION_DATE  = 
ORIGINATOR     = 

OBJECT_NAME    = STARLINK-35769
OBJECT_ID      = 2025-280X
CENTER_NAME    = EARTH
REF_FRAME      = TEME
TIME_SYSTEM    = UTC
MEAN_ELEMENT_THEORY = SGP/SGP4

EPOCH          = 2025-12-22T04:00:01.998720
MEAN_MOTION    = 15.52556579
ECCENTRICITY   = .0003248
INCLINATION    = 70.0000
RA_OF_ASC_NODE = 172.5472
ARG_OF_PERICENTER = 274.5928
MEAN_ANOMALY   = 245.3788

EPHEMERIS_TYPE = 0
CLASSIFICATION_TYPE = U
NORAD_CAT_ID   = 66842
ELEMENT_SET_NO = 999
REV_AT_EPOCH   = 441
BSTAR          = -.2138E-2
MEAN_MOTION_DOT = -.129751E-2
MEAN_MOTION_DDOT = 0

CCSDS_OMM_VERS = 2.0
CREATION_DATE  = 
ORIGINATOR     = 

OBJECT_NAME    = STARLINK-35997
OBJECT_ID      = 2025-280Y
CENTER_NAME    = EARTH
REF_FRAME      = TEME
TIME_SYSTEM    = UTC
MEAN_ELEMENT_THEORY = SGP/SGP4

EPOCH          = 2025-12-22T04:00:01.998720
MEAN_MOTION    = 15.52557750
ECCENTRICITY   = .0003424
INCLINATION    = 70.0002
RA_OF_ASC_NODE = 172.5416
ARG_OF_PERICENTER = 272.3891
MEAN_ANOMALY   = 251.4204

EPHEMERIS_TYPE = 0
CLASSIFICATION_TYPE = U
NORAD_CAT_ID   = 66843
ELEMENT_SET_NO = 999
REV_AT_EPOCH   = 441
BSTAR          = -.21759E-2
MEAN_MOTION_DOT = -.132021E-2
MEAN_MOTION_DDOT = 0

CCSDS_OMM_VERS = 2.0
CREATION_DATE  = 
ORIGINATOR     = 

OBJECT_NAME    = STARLINK-36073
OBJECT_ID      = 2025-280Z
CENTER_NAME    = EARTH
REF_FRAME      = TEME
TIME_SYSTEM    = UTC
MEAN_ELEMENT_THEORY = SGP/SGP4

EPOCH          = 2025-12-22T04:00:01.998720
MEAN_MOTION    = 15.52557370
ECCENTRICITY   = .0003307
INCLINATION    = 70.0000
RA_OF_ASC_NODE = 172.5448
ARG_OF_PERICENTER = 274.1245
MEAN_ANOMALY   = 247.7638

EPHEMERIS_TYPE = 0
CLASSIFICATION_TYPE = U
NORAD_CAT_ID   = 66844
ELEMENT_SET_NO = 999
REV_AT_EPOCH   = 441
BSTAR          = -.21198E-2
MEAN_MOTION_DOT = -.128673E-2
MEAN_MOTION_DDOT = 0

