STARLINK-35858          
1 66833U 25280N   25356.16668980 -.00136687  00000+0 -22540-2 0  9995
2 66833  69.9997 172.5689 0003451 273.8710 228.8528 15.52559827  4419
STARLINK-35840          
1 66834U 25280P   25356.16668980 -.00139097  00000+0 -22942-2 0  9990
2 66834  69.9999 172.5658 0003536 270.4809 234.1588 15.52562564  4412
STARLINK-35890          
1 66835U 25280Q   25356.16668980 -.00144149  00000+0 -23792-2 0  9999
2 66835  69.9999 172.5633 0003385 272.8486 233.7101 15.52563397  4416
STARLINK-35838          
1 66836U 25280R   25356.16668980 -.00098652  00000+0 -16195-2 0  9996
2 66836  70.0000 172.5609 0003266 274.0169 234.4531 15.52540675  4415
STARLINK-35729          
1 66837U 25280S   25356.16668980 -.00108951  00000+0 -17907-2 0  9993
2 66837  70.0001 172.5585 0003302 271.3253 239.0570 15.52547476  4415
STARLINK-35886          
1 66838U 25280T   25356.16668980 -.00138200  00000+0 -22793-2 0  9993
2 66838  70.0001 172.5535 0003188 274.5209 239.7039 15.52562766  4415
STARLINK-35717          
1 66839U 25280U   25356.16668980 -.00137855  00000+0 -22735-2 0  9995
2 66839  70.0001 172.5558 0003388 273.7770 238.5306 15.52561602  4419
STARLINK-35837          
1 66840U 25280V   25356.16668980  .00058856  00000+0  95320-3 0  9999
2 66840  70.0000 172.5514 0003311 272.4747 243.5786 15.52493578  4412
STARLINK-35715          
1 66841U 25280W   25356.16668980 -.00136952  00000+0 -22584-2 0  9997
2 66841  70.0000 172.5493 0003447 273.1554 244.9055 15.52560673  4418
STARLINK-35769          
1 66842U 25280X   25356.16668980 -.00129751  00000+0 -21380-2 0  9990
2 66842  70.0000 172.5472 0003248 274.5928 245.3788 15.52556579  4413
STARLINK-35997          
1 66843U 25280Y   25356.16668980 -.00132021  00000+0 -21759-2 0  9995
2 66843  70.0002 172.5416 0003424 272.3891 251.4204 15.52557750  4418
STARLINK-36073          
1 66844U 25280Z   25356.16668980 -.00128673  00000+0 -21198-2 0  9991
2 66844  70.0000 172.5448 0003307 274.1245 247.7638 15.52557370  4412
